TIANMU-1 07             
1 57399U 23101A   26065.57454230  .00008352  00000+0  29795-3 0  9991
2 57399  97.2728 118.5929 0004609 142.4105 217.7458 15.29118809145964
STARLINK-35893          
1 66565U 25268J   26068.17653314  .00027668  00000+0  10110-2 0  9996
2 66565  43.0028 349.7575 0001774 257.0329 103.0325 15.27585270 17884
